STARLINK-36582          
1 67599U 26018L   26053.91955724  .00236671  00000+0  15377-2 0  9990
2 67599  97.2860 119.0139 0001816  58.2825 301.8617 15.75285742  5030
STARLINK-36640          
1 67600U 26018M   26053.68486368  .00222405  00000+0  14495-2 0  9990
2 67600  97.2838 118.7188 0002894  80.3005 279.8587 15.75250975  4940
STARLINK-36635          
1 67601U 26018N   26053.91668981 -.00106731  00000+0 -72309-3 0  9994
2 67601  97.2854 119.0424 0001656  97.4188 316.4588 15.75207119  4987
STARLINK-36631          
1 67602U 26018P   26053.91668981 -.00340495  00000+0 -23533-2 0  9996
2 67602  97.2849 119.0612 0001338  74.1185  25.6240 15.75391390  4975
STARLINK-36626          
1 67603U 26018Q   26053.91355771  .00305680  00000+0  19681-2 0  9991
2 67603  97.2852 119.0221 0001249  67.9199 292.2199 15.75303466  4985
STARLINK-36605          
1 67604U 26018R   26053.93120518  .00322967  00000+0  20747-2 0  9995
2 67604  97.2848 118.9965 0001961  90.1352 270.0138 15.75307852  4984
STARLINK-36281          
1 67605U 26018S   26053.76943618  .00443205  00000+0  21935-2 0  9990
2 67605  97.2837 118.9102 0001935 146.5844 213.5547 15.80871420  4966
STARLINK-35843          
1 67606U 26018T   26053.92555818  .00261021  00000+0  16903-2 0  9993
2 67606  97.2860 119.0051 0002025  60.4025 299.7442 15.75293228  4984
STARLINK-36351          
1 67607U 26018U   26053.91179021  .00167799  00000+0  11002-2 0  9993
2 67607  97.2842 119.0245 0001080 103.0845 257.0541 15.75267651  4982
STARLINK-36411          
1 67608U 26018V   26053.70097549  .00401108  00000+0  19964-2 0  9995
2 67608  97.2843 118.8504 0001372  97.3351 262.8073 15.80855776  4958
STARLINK-36312          
1 67609U 26018W   26053.90967617  .00244082  00000+0  15821-2 0  9994
2 67609  97.2843 119.0273 0002327  42.2450 317.8994 15.75318173  4980
STARLINK-36387          
1 67610U 26018X   26053.69834757  .00142868  00000+0  73147-3 0  9995
2 67610  97.2848 118.8530 0001557  91.2069 268.9378 15.80905191  4951
