CCSDS_OMM_VERS = 2.0
CREATION_DATE  = 
ORIGINATOR     = 

OBJECT_NAME    = STARLINK-36582
OBJECT_ID      = 2026-018L
CENTER_NAME    = EARTH
REF_FRAME      = TEME
TIME_SYSTEM    = UTC
MEAN_ELEMENT_THEORY = SGP/SGP4

EPOCH          = 2026-02-22T22:04:09.745536
MEAN_MOTION    = 15.75285742
ECCENTRICITY   = .00018162
INCLINATION    = 97.2860
RA_OF_ASC_NODE = 119.0139
ARG_OF_PERICENTER = 58.2825
MEAN_ANOMALY   = 301.8617

EPHEMERIS_TYPE = 0
CLASSIFICATION_TYPE = U
NORAD_CAT_ID   = 67599
ELEMENT_SET_NO = 999
REV_AT_EPOCH   = 503
BSTAR          = .15376533E-2
MEAN_MOTION_DOT = .236671E-2
MEAN_MOTION_DDOT = 0

CCSDS_OMM_VERS = 2.0
CREATION_DATE  = 
ORIGINATOR     = 

OBJECT_NAME    = STARLINK-36640
OBJECT_ID      = 2026-018M
CENTER_NAME    = EARTH
REF_FRAME      = TEME
TIME_SYSTEM    = UTC
MEAN_ELEMENT_THEORY = SGP/SGP4

EPOCH          = 2026-02-22T16:26:12.221952
MEAN_MOTION    = 15.75250975
ECCENTRICITY   = .00028945
INCLINATION    = 97.2838
RA_OF_ASC_NODE = 118.7188
ARG_OF_PERICENTER = 80.3005
MEAN_ANOMALY   = 279.8587

EPHEMERIS_TYPE = 0
CLASSIFICATION_TYPE = U
NORAD_CAT_ID   = 67600
ELEMENT_SET_NO = 999
REV_AT_EPOCH   = 494
BSTAR          = .14495185E-2
MEAN_MOTION_DOT = .222405E-2
MEAN_MOTION_DDOT = 0

CCSDS_OMM_VERS = 2.0
CREATION_DATE  = 
ORIGINATOR     = 

OBJECT_NAME    = STARLINK-36635
OBJECT_ID      = 2026-018N
CENTER_NAME    = EARTH
REF_FRAME      = TEME
TIME_SYSTEM    = UTC
MEAN_ELEMENT_THEORY = SGP/SGP4

EPOCH          = 2026-02-22T22:00:01.999584
MEAN_MOTION    = 15.75207119
ECCENTRICITY   = .0001656
INCLINATION    = 97.2854
RA_OF_ASC_NODE = 119.0424
ARG_OF_PERICENTER = 97.4188
MEAN_ANOMALY   = 316.4588

EPHEMERIS_TYPE = 0
CLASSIFICATION_TYPE = U
NORAD_CAT_ID   = 67601
ELEMENT_SET_NO = 999
REV_AT_EPOCH   = 498
BSTAR          = -.72309007E-3
MEAN_MOTION_DOT = -.106731E-2
MEAN_MOTION_DDOT = 0

CCSDS_OMM_VERS = 2.0
CREATION_DATE  = 
ORIGINATOR     = 

OBJECT_NAME    = STARLINK-36631
OBJECT_ID      = 2026-018P
CENTER_NAME    = EARTH
REF_FRAME      = TEME
TIME_SYSTEM    = UTC
MEAN_ELEMENT_THEORY = SGP/SGP4

EPOCH          = 2026-02-22T22:00:01.999584
MEAN_MOTION    = 15.75391390
ECCENTRICITY   = .0001338
INCLINATION    = 97.2849
RA_OF_ASC_NODE = 119.0612
ARG_OF_PERICENTER = 74.1185
MEAN_ANOMALY   = 25.6240

EPHEMERIS_TYPE = 0
CLASSIFICATION_TYPE = U
NORAD_CAT_ID   = 67602
ELEMENT_SET_NO = 999
REV_AT_EPOCH   = 497
BSTAR          = -.23532966E-2
MEAN_MOTION_DOT = -.340495E-2
MEAN_MOTION_DDOT = 0

CCSDS_OMM_VERS = 2.0
CREATION_DATE  = 
ORIGINATOR     = 

OBJECT_NAME    = STARLINK-36626
OBJECT_ID      = 2026-018Q
CENTER_NAME    = EARTH
REF_FRAME      = TEME
TIME_SYSTEM    = UTC
MEAN_ELEMENT_THEORY = SGP/SGP4

EPOCH          = 2026-02-22T21:55:31.386144
MEAN_MOTION    = 15.75303466
ECCENTRICITY   = .00012493
INCLINATION    = 97.2852
RA_OF_ASC_NODE = 119.0221
ARG_OF_PERICENTER = 67.9199
MEAN_ANOMALY   = 292.2199

EPHEMERIS_TYPE = 0
CLASSIFICATION_TYPE = U
NORAD_CAT_ID   = 67603
ELEMENT_SET_NO = 999
REV_AT_EPOCH   = 498
BSTAR          = .19681139E-2
MEAN_MOTION_DOT = .30568E-2
MEAN_MOTION_DDOT = 0

CCSDS_OMM_VERS = 2.0
CREATION_DATE  = 
ORIGINATOR     = 

OBJECT_NAME    = STARLINK-36605
OBJECT_ID      = 2026-018R
CENTER_NAME    = EARTH
REF_FRAME      = TEME
TIME_SYSTEM    = UTC
MEAN_ELEMENT_THEORY = SGP/SGP4

EPOCH          = 2026-02-22T22:20:56.127552
MEAN_MOTION    = 15.75307852
ECCENTRICITY   = .00019616
INCLINATION    = 97.2848
RA_OF_ASC_NODE = 118.9965
ARG_OF_PERICENTER = 90.1352
MEAN_ANOMALY   = 270.0138

EPHEMERIS_TYPE = 0
CLASSIFICATION_TYPE = U
NORAD_CAT_ID   = 67604
ELEMENT_SET_NO = 999
REV_AT_EPOCH   = 498
BSTAR          = .20747332E-2
MEAN_MOTION_DOT = .322967E-2
MEAN_MOTION_DDOT = 0

CCSDS_OMM_VERS = 2.0
CREATION_DATE  = 
ORIGINATOR     = 

OBJECT_NAME    = STARLINK-36281
OBJECT_ID      = 2026-018S
CENTER_NAME    = EARTH
REF_FRAME      = TEME
TIME_SYSTEM    = UTC
MEAN_ELEMENT_THEORY = SGP/SGP4

EPOCH          = 2026-02-22T18:27:59.285952
MEAN_MOTION    = 15.80871420
ECCENTRICITY   = .0001935
INCLINATION    = 97.2837
RA_OF_ASC_NODE = 118.9102
ARG_OF_PERICENTER = 146.5844
MEAN_ANOMALY   = 213.5547

EPHEMERIS_TYPE = 0
CLASSIFICATION_TYPE = U
NORAD_CAT_ID   = 67605
ELEMENT_SET_NO = 999
REV_AT_EPOCH   = 496
BSTAR          = .21935211E-2
MEAN_MOTION_DOT = .443205E-2
MEAN_MOTION_DDOT = 0

CCSDS_OMM_VERS = 2.0
CREATION_DATE  = 
ORIGINATOR     = 

OBJECT_NAME    = STARLINK-35843
OBJECT_ID      = 2026-018T
CENTER_NAME    = EARTH
REF_FRAME      = TEME
TIME_SYSTEM    = UTC
MEAN_ELEMENT_THEORY = SGP/SGP4

EPOCH          = 2026-02-22T22:12:48.226752
MEAN_MOTION    = 15.75293228
ECCENTRICITY   = .00020256
INCLINATION    = 97.2860
RA_OF_ASC_NODE = 119.0051
ARG_OF_PERICENTER = 60.4025
MEAN_ANOMALY   = 299.7442

EPHEMERIS_TYPE = 0
CLASSIFICATION_TYPE = U
NORAD_CAT_ID   = 67606
ELEMENT_SET_NO = 999
REV_AT_EPOCH   = 498
BSTAR          = .16903453E-2
MEAN_MOTION_DOT = .261021E-2
MEAN_MOTION_DDOT = 0

CCSDS_OMM_VERS = 2.0
CREATION_DATE  = 
ORIGINATOR     = 

OBJECT_NAME    = STARLINK-36351
OBJECT_ID      = 2026-018U
CENTER_NAME    = EARTH
REF_FRAME      = TEME
TIME_SYSTEM    = UTC
MEAN_ELEMENT_THEORY = SGP/SGP4

EPOCH          = 2026-02-22T21:52:58.674144
MEAN_MOTION    = 15.75267651
ECCENTRICITY   = .000108
INCLINATION    = 97.2842
RA_OF_ASC_NODE = 119.0245
ARG_OF_PERICENTER = 103.0845
MEAN_ANOMALY   = 257.0541

EPHEMERIS_TYPE = 0
CLASSIFICATION_TYPE = U
NORAD_CAT_ID   = 67607
ELEMENT_SET_NO = 999
REV_AT_EPOCH   = 498
BSTAR          = .1100209E-2
MEAN_MOTION_DOT = .167799E-2
MEAN_MOTION_DDOT = 0

CCSDS_OMM_VERS = 2.0
CREATION_DATE  = 
ORIGINATOR     = 

OBJECT_NAME    = STARLINK-36411
OBJECT_ID      = 2026-018V
CENTER_NAME    = EARTH
REF_FRAME      = TEME
TIME_SYSTEM    = UTC
MEAN_ELEMENT_THEORY = SGP/SGP4

EPOCH          = 2026-02-22T16:49:24.282336
MEAN_MOTION    = 15.80855776
ECCENTRICITY   = .00013729
INCLINATION    = 97.2843
RA_OF_ASC_NODE = 118.8504
ARG_OF_PERICENTER = 97.3351
MEAN_ANOMALY   = 262.8073

EPHEMERIS_TYPE = 0
CLASSIFICATION_TYPE = U
NORAD_CAT_ID   = 67608
ELEMENT_SET_NO = 999
REV_AT_EPOCH   = 495
BSTAR          = .19963588E-2
MEAN_MOTION_DOT = .401108E-2
MEAN_MOTION_DDOT = 0

CCSDS_OMM_VERS = 2.0
CREATION_DATE  = 
ORIGINATOR     = 

OBJECT_NAME    = STARLINK-36312
OBJECT_ID      = 2026-018W
CENTER_NAME    = EARTH
REF_FRAME      = TEME
TIME_SYSTEM    = UTC
MEAN_ELEMENT_THEORY = SGP/SGP4

EPOCH          = 2026-02-22T21:49:56.021088
MEAN_MOTION    = 15.75318173
ECCENTRICITY   = .00023279
INCLINATION    = 97.2843
RA_OF_ASC_NODE = 119.0273
ARG_OF_PERICENTER = 42.2450
MEAN_ANOMALY   = 317.8994

EPHEMERIS_TYPE = 0
CLASSIFICATION_TYPE = U
NORAD_CAT_ID   = 67609
ELEMENT_SET_NO = 999
REV_AT_EPOCH   = 498
BSTAR          = .15821348E-2
MEAN_MOTION_DOT = .244082E-2
MEAN_MOTION_DDOT = 0

CCSDS_OMM_VERS = 2.0
CREATION_DATE  = 
ORIGINATOR     = 

OBJECT_NAME    = STARLINK-36387
OBJECT_ID      = 2026-018X
CENTER_NAME    = EARTH
REF_FRAME      = TEME
TIME_SYSTEM    = UTC
MEAN_ELEMENT_THEORY = SGP/SGP4

EPOCH          = 2026-02-22T16:45:37.230048
MEAN_MOTION    = 15.80905191
ECCENTRICITY   = .00015572
INCLINATION    = 97.2848
RA_OF_ASC_NODE = 118.8530
ARG_OF_PERICENTER = 91.2069
MEAN_ANOMALY   = 268.9378

EPHEMERIS_TYPE = 0
CLASSIFICATION_TYPE = U
NORAD_CAT_ID   = 67610
ELEMENT_SET_NO = 999
REV_AT_EPOCH   = 495
BSTAR          = .73146791E-3
MEAN_MOTION_DOT = .142868E-2
MEAN_MOTION_DDOT = 0

